NOAA 2 (ITOS-D)
1 06235U 72082A   25141.57410528 -.00000030  00000-0  10256-3 0  9991
2 06235 102.0214 150.5731 0003995 190.3934 285.2998 12.53200329405891
SOLRAD-7B
1  1291U 65016D   25141.88212982  .00000010  00000-0  46543-4 0  9991
2  1291  70.0798 348.1471 0023537 274.1727  85.6689 13.94910739 62628
OSCAR-7 (AO-7)
1 07530U 74089B   25141.58663108 -.00000026  00000-0  12524-3 0  9999
2 07530 101.9934 145.6482 0012383 156.6853 321.5583 12.53689176311443
UOSAT-2 (UO-11)
1 14781U 84021B   25141.31918713  .00001455  00000-0  15911-3 0  9997
2 14781  97.7533 108.0714 0009031  48.0818 312.1168 14.89330771198777
FLTSATCOM-7 (USA-20)
1 17181U 86096A   25140.23584237 -.00000136  00000-0  00000-0 0  9994
2 17181  13.0210 342.5733 0039911 322.0901  29.8612  0.98930150148077
FLTSATCOM-8 (USA-46)
1 20253U 89077A   25141.60088501 -.00000363  00000-0  00000-0 0  9997
2 20253  12.5321 353.5142 0005236  40.8556 187.2295  1.00273385256630
OSCAR 16 (PACSAT)
1 20439U 90005D   25142.04516403  .00000121  00000-0  60475-4 0  9999
2 20439  98.8890 162.6675 0009595 302.3173 112.6939 14.33763830846133
LUSAT (LO-19)
1 20442U 90005G   25141.54687619  .00000125  00000-0  61488-4 0  9994
2 20442  98.8984 147.2064 0010453 274.9636  85.0354 14.33947202846260
UFO 2 (USA 95)
1 22787U 93056A   25140.74730231  .00000131  00000-0  00000-0 0  9993
2 22787  11.7621   5.6522 0003060 354.2170 176.4243  1.00274751114614
EYESAT-1 (AO-27)
1 22825U 93061C   25141.75600575  .00000092  00000-0  52198-4 0  9996
2 22825  98.7374 203.2164 0008792 160.8459 199.3055 14.30792836651294
ITAMSAT (IO-26) 
1 22826U 93061D   25141.43069538  .00000123  00000-0  63471-4 0  9991
2 22826  98.7323 202.7714 0009566 147.4779 212.6994 14.31205222651278
UFO 3 (USA 104)
1 23132U 94035A   25140.73881042  .00000083  00000-0  00000-0 0  9998
2 23132  12.1933   8.0287 0000826 304.0946 209.7336  1.00214285127765
RADIO ROSTO (RS-15)
1 23439U 94085A   25141.55320389 -.00000060  00000-0 -48928-3 0  9997
2 23439  64.8157 216.5745 0145541  78.0875 283.6325 11.27581186251747
UFO 4 (USA 108)
1 23467U 95003A   25136.43238942 -.00000013  00000-0  00000-0 0  9996
2 23467   9.7106  14.4788 0002463  45.8793 141.9069  1.00269929110976
UFO 7 (USA 127)
1 23967U 96042A   25141.52997375 -.00000211  00000-0  00000-0 0  9993
2 23967  10.7411  19.1037 0006630  96.8487 286.4700  1.00296522105562
JAS-2 (FO-29)
1 24278U 96046B   25142.19497951 -.00000033  00000-0  15987-5 0  9999
2 24278  98.5780  38.5044 0350567  30.3932 331.7032 13.53247663420535
UFO 8 (USA 138)
1 25258U 98016A   25141.16294747 -.00000226  00000-0  00000-0 0  9990
2 25258  10.6558  25.0155 0003417 249.8711 108.7796  1.00396373 99923
TECHSAT-1B (GO-32)
1 25397U 98043D   25142.21644813  .00000093  00000-0  60340-4 0  9992
2 25397  98.9695 120.9536 0000232 234.2846 125.8310 14.24310516395897
ISS (ZARYA)
1 25544U 98067A   25142.17626388  .00007957  00000-0  14902-3 0  9992
2 25544  51.6387  75.9349 0002437 130.6256  11.0458 15.49654472511124
UFO 10 (USA 146)
1 25967U 99063A   25142.01371281 -.00000181  00000-0  00000+0 0  9993
2 25967   9.7073  29.1792 0001224 357.2173 195.5239  1.00272010 93418
PCSAT (NO-44)
1 26931U 01043C   25142.20370609  .00000128  00000-0  78966-4 0  9991
2 26931  67.0492 175.3521 0005901 274.4804  85.5623 14.31725332234637
PROBA-1
1 26958U 01049B   25142.21320460  .00002185  00000-0  15259-3 0  9997
2 26958  97.9473 133.0130 0057718   4.8934 355.2843 15.05164348284829
SAUDISAT-1C (SO-50)
1 27607U 02058C   25141.58572360  .00000955  00000-0  13699-3 0  9996
2 27607  64.5531 259.1628 0054098 338.3814  21.5007 14.81575741206418
CUTE-1 (CO-55)
1 27844U 03031E   25141.98927485  .00000298  00000-0  14908-3 0  9991
2 27844  98.6761 150.5026 0008522 237.4630 122.5726 14.23981755136027
CUBESAT XI-IV (CO-57)
1 27848U 03031J   25141.99930947  .00000252  00000-0  13063-3 0  9994
2 27848  98.6792 150.5326 0008286 257.0058 103.0196 14.23318356135774
MOZHAYETS-4 (RS-22)
1 27939U 03042A   25142.20646573  .00001270  00000-0  20905-3 0  9995
2 27939  98.3269 311.2165 0012647  71.0180 102.6488 14.72308390158128
UFO 11 (USA 174)
1 28117U 03057A   25141.90771613 -.00000097  00000-0  00000+0 0  9997
2 28117   8.5521  35.5809 0002096  18.1625 228.3696  1.00272954 78496
CUBESAT XI-V (CO-58)
1 28895U 05043F   25141.88008870  .00001403  00000-0  23706-3 0  9995
2 28895  98.2475 286.0001 0014578  11.7211 348.4332 14.70953192 44426
CAPE-1
1 31130U 07012P   25141.30248332  .00001044  00000-0  20211-3 0  9994
2 31130  98.3968 102.0070 0084759 213.2125 146.3740 14.63341708961000
CUTE-1.7+APD II (CO-65)
1 32785U 08021C   25142.18029321  .00004698  00000-0  34204-3 0  9999
2 32785  97.7847 113.2113 0007610 276.5666  83.4693 15.04254989926381
SEEDS-II (CO-66)
1 32791U 08021J   25141.39585095  .00011879  00000-0  58294-3 0  9997
2 32791  97.7269 121.0176 0002342 198.4097 161.7052 15.18254367927586
YUBILEINY (RS-30)
1 32953U 08025A   25142.21374915  .00000037  00000-0  19111-3 0  9999
2 32953  82.5037 238.5966 0020496  87.4919 272.8507 12.43164536771255
KKS-1 (KISEKI)
1 33499U 09002H   25141.81605796  .00001324  00000-0  17553-3 0  9998
2 33499  98.1216  53.6270 0009438 113.1111 247.1096 14.81563455878647
SWISSCUBE
1 35932U 09051B   25140.70517572  .00001117  00000-0  23621-3 0  9990
2 35932  98.4324  36.5665 0007099   5.1252 355.0019 14.61288113831814
BEESAT
1 35933U 09051C   25141.69913044  .00000830  00000-0  18036-3 0  9999
2 35933  98.4255  37.9667 0005789  17.5584 342.5815 14.60711221832090
ITUPSAT-1
1 35935U 09051E   25142.18040866  .00000898  00000-0  19939-3 0  9996
2 35935  98.4349  38.0122 0008132  20.4228 339.7294 14.59513184831710
PROBA-2
1 36037U 09059B   25141.45090964  .00000221  00000-0  62247-4 0  9992
2 36037  98.2377 325.4750 0014253  54.2275 306.0244 14.54547054824577
XIWANG-1 (HOPE-1)
1 36122U 09072B   25141.84621903 -.00000020  00000-0  63113-4 0  9999
2 36122 100.3479  98.0188 0008065  51.2929 308.8904 13.16424438741618
EWS-G2 (GOES-15)
1 36411U 10008A   25141.87891728  .00000046  00000-0  00000+0 0  9996
2 36411   0.2612  85.8694 0001421 122.9094  49.0113  1.00266559 55702
TISAT-1
1 36799U 10035E   25142.18198503  .00010832  00000-0  56415-3 0  9990
2 36799  98.0596  55.0964 0004302 135.0672 225.0908 15.16197235808388
HORYU-2
1 38340U 12025D   25141.26933706  .00003444  00000-0  38592-3 0  9992
2 38340  98.1761 255.3924 0009039  30.8898 329.2847 14.87517069690399
AAUSAT-3
1 39087U 13009B   25142.07468318  .00000635  00000-0  21861-3 0  9996
2 39087  98.3672 330.0582 0010566 311.0564  48.9710 14.39200206641224
STRAND-1
1 39090U 13009E   25142.08178782  .00000297  00000-0  11520-3 0  9999
2 39090  98.3827 327.2642 0007954 327.2741  32.7952 14.36804306640910
CUBEBUG-1 (CAPITAN BETO)
1 39153U 13018D   25141.94502469  .00003308  00000-0  31881-3 0  9994
2 39153  98.1168 281.8125 0012429   7.3605 352.7794 14.93601653652673
PROBA-V
1 39159U 13021A   25142.25030873  .00000100  00000-0  61987-4 0  9992
2 39159  98.3205 136.1189 0003963 180.5532 179.5644 14.23481537625490
ZACUBE-1 (TSHEPISOSAT)
1 39417U 13066B   25141.93186974  .00003506  00000-0  30774-3 0  9998
2 39417  97.7782  99.0485 0045625 113.4567 247.1461 14.96460198622126
TRITON-1
1 39427U 13066M   25142.20459272  .00003080  00000-0  39302-3 0  9997
2 39427  97.8379  56.4442 0096304  66.4743 294.6551 14.78938689616432
DELFI-N3XT
1 39428U 13066N   25141.73570237  .00006924  00000-0  70746-3 0  9997
2 39428  97.8357  59.6005 0087108  63.1171 297.8916 14.88080741616450
GOMX-1
1 39430U 13066Q   25142.14540885  .00001542  00000-0  24695-3 0  9995
2 39430  97.6856   1.9404 0131131 251.3098 107.3837 14.67569547612707
HUMSAT-D
1 39433U 13066T   25141.52663902  .00028273  00000-0  85391-3 0  9995
2 39433  97.5027 137.0729 0011590 169.1599 190.9896 15.34151803626152
VELOX-PII
1 39438U 13066Y   25141.83353426  .00001751  00000-0  18322-3 0  9993
2 39438  97.8286  89.9828 0055794 195.8749 164.0722 14.89821170620636
CUBEBUG-2 (LO-74)
1 39440U 13066AA  25141.60367108  .00003137  00000-0  32186-3 0  9997
2 39440  97.8483  86.2982 0060509 242.0846 117.4236 14.89811675618618
FUNCUBE-1 (AO-73)
1 39444U 13066AE  25141.36304545  .00007169  00000-0  53977-3 0  9990
2 39444  97.7828 103.2060 0043827  91.5847 269.0398 15.02044410620700
UWE-3
1 39446U 13066AG  25141.83558498  .00002255  00000-0  21808-3 0  9991
2 39446  97.8226  92.8673 0053161 179.4420 180.6867 14.92756730619703
UNISAT-6
1 40012U 14033C   25141.88464880  .00002144  00000-0  25244-3 0  9998
2 40012  97.7404 298.6015 0046415 276.2499  83.3430 14.85097658588027
DUCHIFAT-1
1 40021U 14033M   25141.60168024  .00019372  00000-0  71528-3 0  9996
2 40021  98.0964 154.3022 0009489  37.4381 322.7516 15.27766440595421
FUNCUBE-3 (EO-79)
1 40025U 14033R   25141.52812407  .00006698  00000-0  41363-3 0  9993
2 40025  98.0822 123.0672 0012343 115.1781 245.0728 15.10190542593766
SMAP
1 40376U 15003A   25141.55808681  .00000462  00000-0  98369-4 0  9994
2 40376  98.1279 149.1745 0001677 100.5522 259.5869 14.63386027550346
LILACSAT-2
1 40908U 15049K   25142.20541430  .00010293  00000-0  27296-3 0  9997
2 40908  97.5073 162.1133 0008188 215.2813 144.7891 15.38487061535402
LAPAN-A2 (IO-86)
1 40931U 15052B   25038.81889873  .00001817  00000-0  15548-3 0  9993
2 40931   6.0001 108.1159 0012838 187.7041 172.2889 14.78568669506492
LQSAT
1 40958U 15057A   25142.15538256  .00000732  00000-0  11286-3 0  9996
2 40958  97.6557 150.5074 0018862 100.8869 259.4465 14.76044193517597
PRATHAM
1 41783U 16059A   25142.01915127  .00000767  00000-0  14620-3 0  9990
2 41783  97.8240 151.5652 0032388  26.6475 333.6385 14.66382024462171
ALSAT-1N
1 41789U 16059G   25142.15859942  .00000993  00000-0  17921-3 0  9991
2 41789  97.8054 158.1631 0026346   1.2936 358.8333 14.68329383462609
CAS-2T & KS-1Q
1 41847U 16066G   25141.82666615  .00000893  00000-0  13729-3 0  9991
2 41847  98.4203 216.4516 0345293 235.1254 121.7026 14.43421905448317
